NORAD_CAT_ID,OBJECT_NAME,OBJECT_TYPE,EPOCH,MEAN_MOTION,ECCENTRICITY,INCLINATION,RA_OF_ASC_NODE,ARG_OF_PERICENTER,MEAN_ANOMALY,BSTAR,MEAN_MOTION_DOT,MEAN_MOTION_DDOT,TLE_LINE0,TLE_LINE1,TLE_LINE2,SEMIMAJOR_AXIS,PERIOD,APOGEE,PERIGEE,DECAYED
52650.0,STARLINK-3891,PAYLOAD,2022-12-11 21:01:13,15.08837593,0.0003413999999999,53.2183,163.4664,49.479,310.6499,0.00012479,1.698e-05,0.0,0 STARLINK-3891,1 52650U 22052BE  22345.87585061  .00001698  00000-0  12479-3 0  9995,2 52650  53.2183 163.4664 0003414  49.4790 310.6499 15.08837593 32564,6917.888000000001,95.438,542.115,537.391,0.0
52650.0,STARLINK-3891,PAYLOAD,2022-12-12 11:19:41,15.08843646,0.0003358,53.2181,160.7896,50.9732,309.1559,0.00011485,1.5399999999999998e-05,0.0,0 STARLINK-3891,1 52650U 22052BE  22346.47200775  .00001540  00000-0  11485-3 0  9990,2 52650  53.2181 160.7896 0003358  50.9732 309.1559 15.08843646 33027,6917.869000000002,95.437,542.057,537.411,0.0
52650.0,STARLINK-3891,PAYLOAD,2022-12-13 04:48:55,15.08851312,0.0003402,53.2183,157.5189,52.6079,307.5223,0.00015891,2.242e-05,0.0,0 STARLINK-3891,1 52650U 22052BE  22347.20063969  .00002242  00000-0  15891-3 0  9999,2 52650  53.2183 157.5189 0003402  52.6079 307.5223 15.08851312 33132,6917.846,95.437,542.064,537.357,0.0
52650.0,STARLINK-3891,PAYLOAD,2022-12-13 12:45:51,15.08849738,0.0003498,53.2183,156.0318,54.7666,305.3653,9.2859e-05,1.19e-05,0.0,0 STARLINK-3891,1 52650U 22052BE  22347.53184095  .00001190  00000-0  92859-4 0  9990,2 52650  53.2183 156.0318 0003498  54.7666 305.3653 15.08849738 32816,6917.851,95.437,542.135,537.2959999999998,0.0
52650.0,STARLINK-3891,PAYLOAD,2022-12-13 17:32:00,15.088425,0.000346,53.2189,155.1404,53.5109,306.6201,2.6315e-05,1.3e-06,0.0,0 STARLINK-3891,1 52650U 22052BE  22347.73056648  .00000130  00000-0  26315-4 0  9991,2 52650  53.2189 155.1404 0003460  53.5109 306.6201 15.08842500 33214,6917.873000000001,95.437,542.131,537.344,0.0
52650.0,STARLINK-3891,PAYLOAD,2022-12-13 20:42:47,15.08842388,0.0003434,53.2182,154.5451,53.9817,306.1493,2.1742e-05,5.7e-07,0.0,0 STARLINK-3891,1 52650U 22052BE  22347.86304597  .00000057  00000-0  21742-4 0  9991,2 52650  53.2182 154.5451 0003434  53.9817 306.1493 15.08842388 32865,6917.873000000001,95.437,542.114,537.362,0.0
52650.0,STARLINK-3891,PAYLOAD,2022-12-14 04:39:42,15.08845365,0.0003483,53.2186,153.0587,54.4775,305.6542,2.9004e-05,1.73e-06,0.0,0 STARLINK-3891,1 52650U 22052BE  22348.19424287  .00000173  00000-0  29004-4 0  9995,2 52650  53.2186 153.0587 0003483  54.4775 305.6542 15.08845365 32919,6917.864000000001,95.437,542.138,537.319,0.0
52650.0,STARLINK-3891,PAYLOAD,2022-12-14 17:22:46,15.08853255,0.0003353,53.2191,150.6786,55.5027,304.6282,3.2136e-05,2.23e-06,0.0,0 STARLINK-3891,1 52650U 22052BE  22348.72415446  .00000223  00000-0  32136-4 0  9997,2 52650  53.2191 150.6786 0003353  55.5027 304.6282 15.08853255 33364,6917.84,95.437,542.024,537.385,0.0
52650.0,STARLINK-3891,PAYLOAD,2022-12-14 22:08:57,15.08842942,0.0003596,53.2163,149.7878,53.7563,306.3761,-1.9929e-05,-6.06e-06,0.0,0 STARLINK-3891,1 52650U 22052BE  22348.92288197 -.00000606  00000-0 -19929-4 0  9992,2 52650  53.2163 149.7878 0003596  53.7563 306.3761 15.08842942 33393,6917.871,95.437,542.224,537.249,0.0
52650.0,STARLINK-3891,PAYLOAD,2022-12-15 14:02:47,15.08851338,0.0004019,53.2168,146.8143,59.8546,300.2844,-6.6883e-05,-1.354e-05,0.0,0 STARLINK-3891,1 52650U 22052BE  22349.58527686 -.00001354  00000-0 -66883-4 0  9996,2 52650  53.2168 146.8143 0004019  59.8546 300.2844 15.08851338 33125,6917.846,95.437,542.491,536.93,0.0
52650.0,STARLINK-3891,PAYLOAD,2022-12-15 20:24:20,15.08843301,0.0003454,53.2178,145.6245,56.541,303.5912,8.7001e-05,1.096e-05,0.0,0 STARLINK-3891,1 52650U 22052BE  22349.85023629  .00001096  00000-0  87001-4 0  9990,2 52650  53.2178 145.6245 0003454  56.5410 303.5912 15.08843301 33169,6917.87,95.437,542.125,537.346,0.0
52650.0,STARLINK-3891,PAYLOAD,2022-12-16 10:42:49,15.0883707,0.0003405,53.2181,142.9489,55.4073,304.724,-2.052e-05,-6.15e-06,0.0,0 STARLINK-3891,1 52650U 22052BE  22350.44640324 -.00000615  00000-0 -20520-4 0  9995,2 52650  53.2181 142.9489 0003405  55.4073 304.7240 15.08837070 33626,6917.889,95.438,542.11,537.399,0.0
52650.0,STARLINK-3891,PAYLOAD,2022-12-16 18:39:44,15.08844635,0.0003371,53.2184,141.4624,56.104,304.0272,-2.0411e-06,-3.21e-06,0.0,0 STARLINK-3891,1 52650U 22052BE  22350.77759774 -.00000321  00000-0 -20411-5 0  9995,2 52650  53.2184 141.4624 0003371  56.1040 304.0272 15.08844635 33676,6917.866,95.437,542.063,537.399,0.0
52650.0,STARLINK-3891,PAYLOAD,2022-12-16 20:15:07,15.08846329,0.000336,53.2185,141.1646,56.5879,303.5434,1.6727e-05,-2.3e-07,0.0,0 STARLINK-3891,1 52650U 22052BE  22350.84383592 -.00000023  00000-0  16727-4 0  9996,2 52650  53.2185 141.1646 0003360  56.5879 303.5434 15.08846329 33317,6917.861,95.437,542.05,537.4019999999998,0.0
52650.0,STARLINK-3891,PAYLOAD,2022-12-17 10:33:36,15.08838159,0.0003318,53.2184,138.4883,58.0982,302.0333,7.9442e-05,9.76e-06,0.0,0 STARLINK-3891,1 52650U 22052BE  22351.44000042  .00000976  00000-0  79442-4 0  9998,2 52650  53.2184 138.4883 0003318  58.0982 302.0333 15.08838159 33407,6917.886,95.438,542.0459999999998,537.456,0.0
52650.0,STARLINK-3891,PAYLOAD,2022-12-17 16:55:08,15.08840685,0.0003327,53.2184,137.2991,57.3473,302.784,7.235e-05,8.63e-06,0.0,0 STARLINK-3891,1 52650U 22052BE  22351.70495973  .00000863  00000-0  72350-4 0  9994,2 52650  53.2184 137.2991 0003327  57.3473 302.7840 15.08840685 33442,6917.878000000002,95.438,542.045,537.442,0.0
52650.0,STARLINK-3891,PAYLOAD,2022-12-18 10:24:24,15.08831547,0.0003304,53.2188,134.0277,56.0577,304.0729,-1.1232e-05,-4.68e-06,0.0,0 STARLINK-3891,1 52650U 22052BE  22352.43361138 -.00000468  00000-0 -11232-4 0  9995,2 52650  53.2188 134.0277 0003304  56.0577 304.0729 15.08831547 33925,6917.906,95.438,542.057,537.486,0.0
52650.0,STARLINK-3891,PAYLOAD,2022-12-18 16:45:56,15.08836962,0.0003282,53.2195,132.8389,56.2253,303.9051,3.0484e-05,1.96e-06,0.0,0 STARLINK-3891,1 52650U 22052BE  22352.69856766  .00000196  00000-0  30484-4 0  9995,2 52650  53.2195 132.8389 0003282  56.2253 303.9051 15.08836962 33596,6917.89,95.438,542.025,537.484,0.0
52650.0,STARLINK-3891,PAYLOAD,2022-12-19 02:18:14,15.08839273,0.00034,53.2198,131.055,54.5811,305.5499,6.5175e-05,7.49e-06,0.0,0 STARLINK-3891,1 52650U 22052BE  22353.09600588  .00000749  00000-0  65175-4 0  9998,2 52650  53.2198 131.0550 0003400  54.5811 305.5499 15.08839273 34024,6917.8830000000025,95.438,542.1,537.396,0.0
52650.0,STARLINK-3891,PAYLOAD,2022-12-19 08:39:47,15.08842405,0.0003122,53.2191,129.8651,54.8618,305.2666,0.00010567,1.394e-05,0.0,0 STARLINK-3891,1 52650U 22052BE  22353.36096246  .00001394  00000-0  10567-3 0  9999,2 52650  53.2191 129.8651 0003122  54.8618 305.2666 15.08842405 33699,6917.873000000001,95.437,541.898,537.578,0.0
52650.0,STARLINK-3891,PAYLOAD,2022-12-19 16:36:42,15.08844364,0.0003095,53.2186,128.3792,54.7242,305.4039,0.00013159,1.807e-05,0.0,0 STARLINK-3891,1 52650U 22052BE  22353.69215946  .00001807  00000-0  13159-3 0  9994,2 52650  53.2186 128.3792 0003095  54.7242 305.4039 15.08844364 33742,6917.8669999999975,95.437,541.873,537.591,0.0
52650.0,STARLINK-3891,PAYLOAD,2022-12-20 02:09:01,15.08846037,0.0003088,53.2185,126.5954,54.8053,305.3227,0.00013493,1.86e-05,0.0,0 STARLINK-3891,1 52650U 22052BE  22354.08959729  .00001860  00000-0  13493-3 0  9992,2 52650  53.2185 126.5954 0003088  54.8053 305.3227 15.08846037 34179,6917.861999999999,95.437,541.863,537.591,0.0
52650.0,STARLINK-3891,PAYLOAD,2022-12-20 11:41:19,15.08848815,0.00031,53.2184,124.8091,54.0463,306.0816,0.00014704,2.053e-05,0.0,0 STARLINK-3891,1 52650U 22052BE  22354.48703599  .00002053  00000-0  14704-3 0  9999,2 52650  53.2184 124.8091 0003100  54.0463 306.0816 15.08848815 33866,6917.853,95.437,541.863,537.5740000000002,0.0
52650.0,STARLINK-3891,PAYLOAD,2022-12-21 08:21:21,15.0883927,0.0003145,53.2194,120.9461,58.6351,301.4949,-5.3896e-05,-1.146e-05,0.0,0 STARLINK-3891,1 52650U 22052BE  22355.34816606 -.00001146  00000-0 -53896-4 0  9999,2 52650  53.2194 120.9461 0003145  58.6351 301.4949 15.08839270 34367,6917.8830000000025,95.438,541.923,537.572,0.0
52650.0,STARLINK-3891,PAYLOAD,2022-12-21 11:32:07,15.08836465,0.0003034,53.2188,120.3508,57.7213,302.4073,-7.0777e-05,-1.415e-05,0.0,0 STARLINK-3891,1 52650U 22052BE  22355.48064802 -.00001415  00000-0 -70777-4 0  9993,2 52650  53.2188 120.3508 0003034  57.7213 302.4073 15.08836465 34014,6917.891,95.438,541.855,537.6569999999998,0.0
52650.0,STARLINK-3891,PAYLOAD,2022-12-22 01:50:35,15.08843254,0.0003007,53.2192,117.6737,56.6613,303.4667,2.017e-05,3.2e-07,0.0,0 STARLINK-3891,1 52650U 22052BE  22356.07680181  .00000032  00000-0  20170-4 0  9997,2 52650  53.2192 117.6737 0003007  56.6613 303.4667 15.08843254 34108,6917.87,95.437,541.816,537.655,0.0
52650.0,STARLINK-3891,PAYLOAD,2022-12-22 14:33:40,15.08847538,0.0002926,53.219,115.2945,56.0181,304.1089,5.3092e-05,5.57e-06,0.0,0 STARLINK-3891,1 52650U 22052BE  22356.60671645  .00000557  00000-0  53092-4 0  9992,2 52650  53.2190 115.2945 0002926  56.0181 304.1089 15.08847538 34558,6917.857,95.437,541.747,537.698,0.0
52650.0,STARLINK-3891,PAYLOAD,2022-12-22 19:19:50,15.08841011,0.0002964,53.2192,114.4033,53.0265,307.0998,3.1323000000000005e-05,2.1e-06,0.0,0 STARLINK-3891,1 52650U 22052BE  22356.80544189  .00000210  00000-0  31323-4 0  9995,2 52650  53.2192 114.4033 0002964  53.0265 307.0998 15.08841011 34215,6917.877,95.437,541.793,537.692,0.0
52650.0,STARLINK-3891,PAYLOAD,2022-12-23 01:41:22,15.088432699999998,0.0002856999999999,53.219,113.2146,53.7981,306.3275,3.846e-05,3.24e-06,0.0,0 STARLINK-3891,1 52650U 22052BE  22357.07039911  .00000324  00000-0  38460-4 0  9992,2 52650  53.2190 113.2146 0002857  53.7981 306.3275 15.08843270 34622,6917.87,95.437,541.712,537.759,0.0
